OBJECT_NAME,OBJECT_ID,EPOCH,MEAN_MOTION,ECCENTRICITY,INCLINATION,RA_OF_ASC_NODE,ARG_OF_PERICENTER,MEAN_ANOMALY,EPHEMERIS_TYPE,CLASSIFICATION_TYPE,NORAD_CAT_ID,ELEMENT_SET_NO,REV_AT_EPOCH,BSTAR,MEAN_MOTION_DOT,MEAN_MOTION_DDOT
SAR-LUPE 2,2007-030A,2026-07-13T06:22:17.670720,15.53570206,.00046772,98.1059,302.0129,208.2397,151.8602,0,U,31797,999,6098,.51177888E-3,.32563E-3,0
SAPPHIRE,2013-009C,2026-07-13T07:19:04.386432,14.35247259,.0011473,98.4272,13.1420,165.3754,194.7766,0,U,39088,999,70032,.30843967E-4,.46E-6,0
PRAETORIAN SDA_602,2025-203A,2026-07-12T21:42:51.995808,13.83887795,.00070148,81.3041,346.9559,122.9336,237.2496,0,U,65565,999,4225,.15298624E-4,.29E-6,0
PRAETORIAN SDA_603,2025-203B,2026-07-12T22:23:46.364064,13.83962262,.00107114,81.3046,346.8513,120.5854,239.6361,0,U,65566,999,4226,.11578641E-3,.141E-5,0
PRAETORIAN SDA_604,2025-203C,2026-07-12T21:31:32.844288,13.83049973,.00065198,81.3063,347.3371,126.5576,233.6181,0,U,65567,999,4223,.18275375E-4,.32E-6,0
PRAETORIAN SDA_605,2025-203D,2026-07-12T22:18:01.277280,13.83199796,.00092765,81.3028,346.9494,118.5758,241.6333,0,U,65568,999,4225,.2697428E-5,.15E-6,0
PRAETORIAN SDA_606,2025-203E,2026-07-12T21:56:40.288416,13.83200006,.00071174,81.3064,347.2003,121.2788,238.9066,0,U,65569,999,4224,.17498445E-4,.31E-6,0
PRAETORIAN SDA_607,2025-203F,2026-07-12T21:44:06.679104,13.83759300,.00098386,81.3046,346.8309,120.1176,240.0957,0,U,65570,999,4226,.11567007E-3,.14E-5,0
PRAETORIAN SDA_608,2025-203G,2026-07-12T21:19:05.538720,13.83819283,.00070074,81.3017,347.0117,125.5513,234.6298,0,U,65571,999,4224,.20417479E-4,.35E-6,0
PRAETORIAN SDA_609,2025-203H,2026-07-12T21:15:40.876128,13.84211773,.00078792,81.3060,346.9926,120.2436,239.9502,0,U,65572,999,4225,.12543972E-3,.152E-5,0
PRAETORIAN SDA_610,2025-203J,2026-07-08T21:24:36.728928,13.83769338,.00076481,81.3015,350.6711,134.1093,226.0694,0,U,65573,999,4169,.29957645E-4,.45E-6,0
PRAETORIAN SDA_611,2025-203K,2026-07-12T21:04:37.940160,13.83311314,.00065529,81.3019,347.1643,128.7450,231.4293,0,U,65574,999,4223,.94112452E-4,.115E-5,0
PRAETORIAN SDA_612,2025-203L,2026-07-12T21:47:32.288640,13.85041868,.00101911,81.3034,346.6599,120.5128,239.7037,0,U,65575,999,4227,.14862058E-3,.18E-5,0
PRAETORIAN SDA_613,2025-203M,2026-07-12T21:28:52.994784,13.82767541,.00067295,81.3010,347.1662,120.0616,240.1208,0,U,65576,999,4223,.23875154E-4,.38E-6,0
PRAETORIAN SDA_614,2025-203N,2026-07-12T21:38:56.975712,13.84778456,.00081819,81.3024,346.7500,118.5866,241.6115,0,U,65577,999,4227,.9610507E-5,.23E-6,0
PRAETORIAN SDA_615,2025-203P,2026-07-12T21:14:46.733568,13.84438408,.00101083,81.3034,346.7458,119.4297,240.7870,0,U,65578,999,4226,.76892862E-4,.98E-6,0
PRAETORIAN SDA_616,2025-203Q,2026-07-12T21:04:32.208384,13.83202509,.00066055,81.3058,347.3296,124.3682,235.8100,0,U,65579,999,4223,.91829403E-2,.10086E-3,0
PRAETORIAN SDA_617,2025-203R,2026-07-12T21:38:52.245312,13.83151966,.00084431,81.3048,347.1340,118.9586,241.2418,0,U,65580,999,4224,.22730353E-4,.37E-6,0
PRAETORIAN SDA_618,2025-203S,2026-07-12T22:11:19.898304,13.84225527,.00108154,81.3031,346.6406,122.3406,237.8799,0,U,65581,999,4227,.12446836E-3,.151E-5,0
PRAETORIAN SDA_619,2025-203T,2026-07-12T21:34:29.563392,13.83806643,.00091577,81.3050,346.9908,119.9129,240.2938,0,U,65582,999,4288,.10716866E-3,.131E-5,0
PRAETORIAN SDA_620,2025-203U,2026-07-12T22:23:36.395232,13.83206735,.00086003,81.3043,346.9896,116.5793,243.6245,0,U,65583,999,4225,.10642357E-3,.129E-5,0
PRAETORIAN SDA_621,2025-203V,2026-07-12T21:37:08.085792,13.83803647,.00084635,81.3031,346.9217,114.2437,245.9605,0,U,65584,999,4225,.784426E-5,.21E-6,0
PRAETORIAN SDA_601,2025-203W,2026-07-12T21:11:47.588352,13.83169428,.00066153,81.3047,347.2636,129.9623,230.2115,0,U,65585,999,4223,.13918901E-3,.164E-5,0
VICTUS HAZE PUMA,2026-142A,2026-07-13T06:30:49.506912,15.20839796,.00250298,97.4472,91.5972,273.0497,86.7874,0,U,69646,999,363,.97283749E-4,.2093E-4,0
